start=new Date('2021-11-03T00:00:00.000Z').valueOf();
sats=[{"RA_OF_ASC_NODE":"115.2211","RCS_SIZE":"LARGE","ARG_OF_PERICENTER":"84.3888","REF_FRAME":"TEME","MEAN_MOTION":"15.06400090","NORAD_CAT_ID":"44718","APOAPSIS":"548.553","DECAY_DATE":null,"EPOCH":"2021-11-02T17:39:46.217376","OBJECT_TYPE":"PAYLOAD","TIME_SYSTEM":"UTC","TLE_LINE1":"1 44718U 19074F   21306.73595159  .00001847  00000-0  14286-3 0  9995","SEMIMAJOR_AXIS":"6925.348","ECCENTRICITY":"0.00019340","ELEMENT_SET_NO":"999","PERIAPSIS":"545.874","MEAN_ELEMENT_THEORY":"SGP4","MEAN_ANOMALY":"275.7322","TLE_LINE2":"2 44718  53.0542 115.2211 0001934  84.3888 275.7322 15.06400090109401","MEAN_MOTION_DDOT":"0.0000000000000","LAUNCH_DATE":"2019-11-11","GP_ID":"188771791","SITE":"AFETR","FILE":"3198350","REV_AT_EPOCH":"10940","CENTER_NAME":"EARTH","PERIOD":"95.592","BSTAR":"0.00014286000000","CLASSIFICATION_TYPE":"U","COUNTRY_CODE":"US","MEAN_MOTION_DOT":"0.00001847","INCLINATION":"53.0542","EPHEMERIS_TYPE":"0","OBJECT_ID":"2019-074F","OBJECT_NAME":"STARLINK-1012"},{"FILE":"3198350","CENTER_NAME":"EARTH","REV_AT_EPOCH":"11053","SITE":"AFETR","GP_ID":"188772041","INCLINATION":"53.0537","MEAN_MOTION_DOT":"0.00003968","OBJECT_NAME":"STARLINK-1013","OBJECT_ID":"2019-074G","EPHEMERIS_TYPE":"0","COUNTRY_CODE":"US","CLASSIFICATION_TYPE":"U","PERIOD":"95.591","BSTAR":"0.00028504000000","DECAY_DATE":null,"APOAPSIS":"548.501","NORAD_CAT_ID":"44719","MEAN_MOTION":"15.06411131","RCS_SIZE":"LARGE","RA_OF_ASC_NODE":"115.1754","ARG_OF_PERICENTER":"89.1157","REF_FRAME":"TEME","TLE_LINE2":"2 44719  53.0537 115.1754 0001908  89.1157 271.0051 15.06411131110532","MEAN_MOTION_DDOT":"0.0000000000000","MEAN_ELEMENT_THEORY":"SGP4","MEAN_ANOMALY":"271.0051","LAUNCH_DATE":"2019-11-11","SEMIMAJOR_AXIS":"6925.314","ELEMENT_SET_NO":"999","ECCENTRICITY":"0.00019080","PERIAPSIS":"545.858","TLE_LINE1":"1 44719U 19074G   21306.74331991  .00003968  00000-0  28504-3 0  9993","TIME_SYSTEM":"UTC","OBJECT_TYPE":"PAYLOAD","EPOCH":"2021-11-02T17:50:22.840224"},{"MEAN_ANOMALY":"276.3388","MEAN_ELEMENT_THEORY":"SGP4","TLE_LINE2":"2 44720  53.0530 114.5125 0002011  83.7830 276.3388 15.06395207109439","MEAN_MOTION_DDOT":"0.0000000000000","LAUNCH_DATE":"2019-11-11","ELEMENT_SET_NO":"999","SEMIMAJOR_AXIS":"6925.363","ECCENTRICITY":"0.00020110","PERIAPSIS":"545.836","TLE_LINE1":"1 44720U 19074H   21306.89444603  .00001178  00000-0  97969-4 0  9999","EPOCH":"2021-11-02T21:28:00.136992","TIME_SYSTEM":"UTC","OBJECT_TYPE":"PAYLOAD","DECAY_DATE":null,"NORAD_CAT_ID":"44720","APOAPSIS":"548.621","MEAN_MOTION":"15.06395207","RA_OF_ASC_NODE":"114.5125","RCS_SIZE":"LARGE","ARG_OF_PERICENTER":"83.7830","REF_FRAME":"TEME","INCLINATION":"53.0530","MEAN_MOTION_DOT":"0.00001178","EPHEMERIS_TYPE":"0","OBJECT_ID":"2019-074H","OBJECT_NAME":"STARLINK-1014","COUNTRY_CODE":"US","CLASSIFICATION_TYPE":"U","PERIOD":"95.592","BSTAR":"0.00009796900000","FILE":"3198350","REV_AT_EPOCH":"10943","CENTER_NAME":"EARTH","SITE":"AFETR","GP_ID":"188773292"},{"MEAN_MOTION":"15.06400406","RCS_SIZE":"LARGE","RA_OF_ASC_NODE":"115.1442","ARG_OF_PERICENTER":"81.5103","REF_FRAME":"TEME","DECAY_DATE":null,"NORAD_CAT_ID":"44721","APOAPSIS":"548.509","TLE_LINE1":"1 44721U 19074J   21306.75069753  .00001256  00000-0  10322-3 0  9998","OBJECT_TYPE":"PAYLOAD","TIME_SYSTEM":"UTC","EPOCH":"2021-11-02T18:01:00.266592","TLE_LINE2":"2 44721  53.0516 115.1442 0001872  81.5103 278.6098 15.06400406109404","MEAN_MOTION_DDOT":"0.0000000000000","MEAN_ANOMALY":"278.6098","MEAN_ELEMENT_THEORY":"SGP4","LAUNCH_DATE":"2019-11-11","SEMIMAJOR_AXIS":"6925.347","ELEMENT_SET_NO":"999","ECCENTRICITY":"0.00018720","PERIAPSIS":"545.916","GP_ID":"188773043","FILE":"3198350","CENTER_NAME":"EARTH","REV_AT_EPOCH":"10940","SITE":"AFETR","CLASSIFICATION_TYPE":"U","PERIOD":"95.592","BSTAR":"0.00010322000000","INCLINATION":"53.0516","MEAN_MOTION_DOT":"0.00001256","OBJECT_ID":"2019-074J","OBJECT_NAME":"STARLINK-1015","EPHEMERIS_TYPE":"0","COUNTRY_CODE":"US"},{"PERIOD":"95.592","BSTAR":"0.00014906000000","CLASSIFICATION_TYPE":"U","COUNTRY_CODE":"US","MEAN_MOTION_DOT":"0.00001940","INCLINATION":"53.0539","EPHEMERIS_TYPE":"0","OBJECT_ID":"2019-074K","OBJECT_NAME":"STARLINK-1016","GP_ID":"188772291","SITE":"AFETR","FILE":"3198350","REV_AT_EPOCH":"10941","CENTER_NAME":"EARTH","EPOCH":"2021-11-02T18:06:18.355968","OBJECT_TYPE":"PAYLOAD","TIME_SYSTEM":"UTC","TLE_LINE1":"1 44722U 19074K   21306.75437912  .00001940  00000-0  14906-3 0  9997","SEMIMAJOR_AXIS":"6925.331","ELEMENT_SET_NO":"999","ECCENTRICITY":"0.00018420","PERIAPSIS":"545.920","MEAN_ELEMENT_THEORY":"SGP4","MEAN_ANOMALY":"275.5764","TLE_LINE2":"2 44722  53.0539 115.1359 0001842  84.5435 275.5764 15.06405776109417","MEAN_MOTION_DDOT":"0.0000000000000","LAUNCH_DATE":"2019-11-11","RA_OF_ASC_NODE":"115.1359","RCS_SIZE":"LARGE","ARG_OF_PERICENTER":"84.5435","REF_FRAME":"TEME","MEAN_MOTION":"15.06405776","APOAPSIS":"548.472","NORAD_CAT_ID":"44722","DECAY_DATE":null},{"CLASSIFICATION_TYPE":"U","PERIOD":"95.592","BSTAR":"-0.00000020190000","MEAN_MOTION_DOT":"-0.00000285","INCLINATION":"53.0550","EPHEMERIS_TYPE":"0","OBJECT_NAME":"STARLINK-1017","OBJECT_ID":"2019-074L","COUNTRY_CODE":"US","GP_ID":"188772541","FILE":"3198350","CENTER_NAME":"EARTH","REV_AT_EPOCH":"10938","SITE":"AFETR","TLE_LINE1":"1 44723U 19074L   21306.57008342 -.00000285  00000-0 -20190-6 0  9997","EPOCH":"2021-11-02T13:40:55.207488","TIME_SYSTEM":"UTC","OBJECT_TYPE":"PAYLOAD","MEAN_ANOMALY":"277.4199","MEAN_ELEMENT_THEORY":"SGP4","TLE_LINE2":"2 44723  53.0550 115.9666 0001892  82.7005 277.4199 15.06398057109380","MEAN_MOTION_DDOT":"0.0000000000000","LAUNCH_DATE":"2019-11-11","ECCENTRICITY":"0.00018920","SEMIMAJOR_AXIS":"6925.355","ELEMENT_SET_NO":"999","PERIAPSIS":"545.909","MEAN_MOTION":"15.06398057","RCS_SIZE":"LARGE","RA_OF_ASC_NODE":"115.9666","ARG_OF_PERICENTER":"82.7005","REF_FRAME":"TEME","DECAY_DATE":null,"NORAD_CAT_ID":"44723","APOAPSIS":"548.530"},{"DECAY_DATE":null,"APOAPSIS":"548.388","NORAD_CAT_ID":"44724","MEAN_MOTION":"15.06398927","REF_FRAME":"TEME","ARG_OF_PERICENTER":"90.7748","RA_OF_ASC_NODE":"115.2385","RCS_SIZE":"LARGE","LAUNCH_DATE":"2019-11-11","TLE_LINE2":"2 44724  53.0543 115.2385 0001691  90.7748 269.3435 15.06398927109406","MEAN_MOTION_DDOT":"0.0000000000000","MEAN_ELEMENT_THEORY":"SGP4","MEAN_ANOMALY":"269.3435","PERIAPSIS":"546.046","ELEMENT_SET_NO":"999","SEMIMAJOR_AXIS":"6925.352","ECCENTRICITY":"0.00016910","TLE_LINE1":"1 44724U 19074M   21306.73226930  .00000727  00000-0  67705-4 0  9991","TIME_SYSTEM":"UTC","OBJECT_TYPE":"PAYLOAD","EPOCH":"2021-11-02T17:34:28.067520","CENTER_NAME":"EARTH","REV_AT_EPOCH":"10940","FILE":"3198350","SITE":"AFETR","GP_ID":"188772793","OBJECT_ID":"2019-074M","OBJECT_NAME":"STARLINK-1019","EPHEMERIS_TYPE":"0","INCLINATION":"53.0543","MEAN_MOTION_DOT":"0.00000727","COUNTRY_CODE":"US","CLASSIFICATION_TYPE":"U","BSTAR":"0.00006770500000","PERIOD":"95.592"},{"GP_ID":"188773543","CENTER_NAME":"EARTH","REV_AT_EPOCH":"10913","FILE":"3198350","SITE":"AFETR","CLASSIFICATION_TYPE":"U","BSTAR":"-0.00021534000000","PERIOD":"95.595","OBJECT_NAME":"STARLINK-1020","OBJECT_ID":"2019-074N","EPHEMERIS_TYPE":"0","MEAN_MOTION_DOT":"-0.00003483","INCLINATION":"53.0542","COUNTRY_CODE":"US","MEAN_MOTION":"15.06350513","REF_FRAME":"TEME","ARG_OF_PERICENTER":"88.2223","RCS_SIZE":"LARGE","RA_OF_ASC_NODE":"134.9108","DECAY_DATE":null,"APOAPSIS":"548.447","NORAD_CAT_ID":"44725","TLE_LINE1":"1 44725U 19074N   21306.80418260 -.00003483  00000-0 -21534-3 0  9992","TIME_SYSTEM":"UTC","OBJECT_TYPE":"PAYLOAD","EPOCH":"2021-11-02T19:18:01.376640","LAUNCH_DATE":"2019-11-11","TLE_LINE2":"2 44725  53.0542 134.9108 0001562  88.2223 271.8945 15.06350513109137","MEAN_MOTION_DDOT":"0.0000000000000","MEAN_ANOMALY":"271.8945","MEAN_ELEMENT_THEORY":"SGP4","PERIAPSIS":"546.283","SEMIMAJOR_AXIS":"6925.500","ELEMENT_SET_NO":"999","ECCENTRICITY":"0.00015620"},{"BSTAR":"0.00004087900000","PERIOD":"95.592","CLASSIFICATION_TYPE":"U","COUNTRY_CODE":"US","OBJECT_NAME":"STARLINK-1021","OBJECT_ID":"2019-074P","EPHEMERIS_TYPE":"0","INCLINATION":"53.0534","MEAN_MOTION_DOT":"0.00000327","GP_ID":"188771792","SITE":"AFETR","CENTER_NAME":"EARTH","REV_AT_EPOCH":"10940","FILE":"3198350","TIME_SYSTEM":"UTC","OBJECT_TYPE":"PAYLOAD","EPOCH":"2021-11-02T17:29:09.347424","TLE_LINE1":"1 44726U 19074P   21306.72858041  .00000327  00000-0  40879-4 0  9995","PERIAPSIS":"546.089","SEMIMAJOR_AXIS":"6925.358","ELEMENT_SET_NO":"999","ECCENTRICITY":"0.00016380","LAUNCH_DATE":"2019-11-11","MEAN_MOTION_DDOT":"0.0000000000000","TLE_LINE2":"2 44726  53.0534 115.2628 0001638  93.2644 266.8533 15.06396887109406","MEAN_ANOMALY":"266.8533","MEAN_ELEMENT_THEORY":"SGP4","ARG_OF_PERICENTER":"93.2644","REF_FRAME":"TEME","RCS_SIZE":"LARGE","RA_OF_ASC_NODE":"115.2628","MEAN_MOTION":"15.06396887","APOAPSIS":"548.357","NORAD_CAT_ID":"44726","DECAY_DATE":null},{"EPHEMERIS_TYPE":"0","OBJECT_ID":"2019-074Q","OBJECT_NAME":"STARLINK-1022","MEAN_MOTION_DOT":"0.00004175","INCLINATION":"53.0619","COUNTRY_CODE":"US","CLASSIFICATION_TYPE":"U","BSTAR":"0.00029896000000","PERIOD":"95.591","REV_AT_EPOCH":"10888","CENTER_NAME":"EARTH","FILE":"3198350","SITE":"AFETR","GP_ID":"188772042","LAUNCH_DATE":"2019-11-11","MEAN_ELEMENT_THEORY":"SGP4","MEAN_ANOMALY":"276.0114","MEAN_MOTION_DDOT":"0.0000000000000","TLE_LINE2":"2 44727  53.0619 154.4285 0001899  84.1092 276.0114 15.06411378108882","PERIAPSIS":"545.864","SEMIMAJOR_AXIS":"6925.314","ELEMENT_SET_NO":"999","ECCENTRICITY":"0.00018990","TLE_LINE1":"1 44727U 19074Q   21306.89812546  .00004175  00000-0  29896-3 0  9994","EPOCH":"2021-11-02T21:33:18.039744","OBJECT_TYPE":"PAYLOAD","TIME_SYSTEM":"UTC","DECAY_DATE":null,"APOAPSIS":"548.494","NORAD_CAT_ID":"44727","MEAN_MOTION":"15.06411378","ARG_OF_PERICENTER":"84.1092","REF_FRAME":"TEME","RCS_SIZE":"LARGE","RA_OF_ASC_NODE":"154.4285"}];
